#dP2019  8  1  0  0  0.00000000      96 __u+U IGS08 FIT  IAC
## 2064 345600.00000000   900.00000000 58696 0.0000000000000
+   98   C01C03C04C05C06C07C08C09C10C11C12C13C14C16E01E02E03
+        E04E05E07E08E09E11E12E13E14E15E18E19E21E24E25E26E27
+        E30E31E33E36G01G02G03G04G05G06G07G08G09G10G11G12G13
+        G14G15G16G17G18G19G20G21G22G23G24G25G26G27G28G29G30
+        G31G32J01J02J03J07R01R02R03R04R05R07R08R09R10R11R12
+        R13R14R15R16R17R18R19R20R21R22R23R24R26  0  0  0  0
++        13 13 13 12  8  8  8  7  8  7  7  8  7  9  4  4  4
++         4  4  4  4  5  4  4  4  4  4  4  4  4  4  4  4  4
++         4  4  4  4  3  3  3  5  3  3  3  3  3  3  3  3  3
++         3  3  3  3  3  3  3  3  3  3  3  3  3  3  3  3  3
++         3  3  9  8  9 14  5  5  5  5  5  5  5  5  5  5  5
++         6  5  5  6  5  5  6  6  5  5  5  6  8  0  0  0  0
%c M  cc GPS ccc cccc cccc cccc cccc ccccc ccccc ccccc ccccc
%c cc cc ccc ccc cccc cccc cccc cccc ccccc ccccc ccccc ccccc
%f  1.2500000  1.025000000  0.00000000000  0.000000000000000
%f  0.0000000  0.000000000  0.00000000000  0.000000000000000
%i    0    0    0    0      0      0      0      0         0
%i    0    0    0    0      0      0      0      0         0
/* INFORMATION & ANALYSIS CENTER (IAC)            FINAL DATA
/* S/V CLOCKS ARE ALIGNED TO GPS & GLONASS TIME RESPECTIVELY
/* USING THE BROADCAST EPHEMERIS                            
/* PCV:IGS14_2056 OL/AL:FES2004  NONE     YN ORB:CoN CLK:CoN
*  2019 08 01 10 15  0.00000000
PC01 -32346.462411  27036.193847   -898.501819    202.775016
PC03 -14827.303027  39495.685507    147.981545    886.062246
PC04 -39618.038195  14420.498677   -344.690598    774.269083
PC05  21877.842379  36058.042654   1113.768927   -464.947807
PC06  -9244.715074  36740.799684  19238.164586    505.871425
PC07 -14694.488616  21990.680437 -32750.799665    -38.542402
PC08 -24299.143701  30873.764766  14930.112087    167.749757
PC09   -863.927121  41901.762925   6313.744237   -142.978136
PC10   1063.846215  26807.344234 -32294.602358    -40.543988
PC11  16507.781815  -8142.787561  21042.935969    237.451564
PC12   6423.124841  20977.185094  17252.992957    924.932778
PC13 -12592.907706  31570.383469  24830.201604   -881.711608
PC14  22999.367790  11181.158279 -11150.546690    518.039545
PC16  -7210.208550  37601.846156  17888.396169   -881.859260
PE01 -14743.801374 -15517.881939  20452.974781   -659.307613
PE02  14799.518630  15499.503381 -20415.691440     71.918648
PE03  12508.291525  26760.745027  -1734.028384   -194.669754
PE04 -19419.193898 -13018.532128  18166.899549   -335.334029
PE05  -1794.062948  24933.988347  15853.845025   -461.377104
PE07  14951.812160  -8551.900474 -24061.458051   -237.678214
PE08  19415.651802  12780.504798 -18309.492970   6314.753570
PE09 -14756.597965   8624.797046  24176.319157   6361.225569
PE11 -21689.557855  16967.194309 -10886.531974   5637.949506
PE12 -17922.507012  -2067.395596 -23472.480883   6269.836868
PE13  21589.411637 -16989.878427  11015.536435    390.795643
PE14   1630.003519 -26611.638210   2106.335860   -664.764970
PE15  18043.744707   1581.950476  23411.725980    901.030867
PE18 -12103.789954  23864.817766 -14329.842205   -759.940380
PE19 -11366.826588 -27330.846996   -159.647144     -4.825521
PE21   7690.141618 -15166.830861  24227.409442   -547.173402
PE24 -25467.827959   5922.916279 -13874.595585   5947.009747
PE25  -7799.005215  15138.208454 -24205.260743   1724.574670
PE26  12588.481743 -25596.568789  -7921.934015   4274.324024
PE27  25569.675080  -5893.655744  13696.105198    417.205530
PE30  28398.377794   6899.862552  -4701.478022   4664.309642
PE31 -28398.453134  -6826.187521   4864.055913   -466.974914
PE33  -3919.624519 -19269.355116 -22122.852118   -469.833907
PE36 -12490.991626  25655.692918   7873.451974    680.318117
PG01   8139.833035 -18946.966320 -16750.669903    -83.725674
PG02 -21466.185273  15405.402391  -1171.586522   -273.142653
PG03  -2714.768473 -17032.490624 -20272.129424    177.516271
PG04  13909.330726  -6872.683023  21197.097061     45.762257
PG05 -17872.542924   6362.284590  18543.092293     -0.317355
PG06 -22056.450577   3038.383805 -14465.685073    -11.404756
PG07  -7538.247248 -13535.380382  21832.418566    -76.154862
PG08   5610.261543 -23453.224624  10925.586038     -0.989578
PG09  -8493.614167 -23388.635925   9235.869616    357.951671
PG10  24184.673416  11218.495059   -791.090961    -36.416938
PG11   6546.413425 -24545.438216  -8748.989761   -546.614884
PG12  -1285.658166  15848.071479 -21518.100916    218.346634
PG13 -12687.405567  15748.994845  17078.139305    -51.849444
PG14  15076.434011   -158.865832 -21537.671015    -68.745077
PG15  -3664.031784  24004.093114  10018.836234   -297.106071
PG16  18500.587106  -3406.594349  18734.991849    -61.162831
PG17 -13749.685642  -8924.620916 -20512.851546     98.903776
PG18  14968.487044 -19796.514182  -9795.436054     74.441354
PG19 -14819.350117  -1844.256310 -22266.901794   -286.689320
PG20  20845.311223  14072.134475   8686.306266    526.250872
PG21  12352.272412  10322.239492  21906.395975   -144.215425
PG22   5262.953128 -14912.357869 -21116.550975   -738.514826
PG23   -346.749835 -26173.343944  -2649.941108   -174.419801
PG24  -9804.316177  20220.210107 -14051.145166     -0.183082
PG25  12923.670185  17953.740709 -15094.527686     -4.755181
PG26  24115.907975   2389.168977  11057.096149      4.600188
PG27  12295.198596 -12810.260843  19538.690897    -10.858459
PG28 -22729.448222 -13597.830670   -351.314315    765.561206
PG29   4413.616395  25321.983958   6618.401583    136.456815
PG30 -17359.134620  -5914.832916  19310.033568    -10.681847
PG31  23171.899439  -3985.538711 -12779.473448     20.364192
PG32  14932.593951   8493.831628 -20222.839066      2.165620
PJ01 -25632.034712  22431.790331  29950.741184   -265.016267
PJ02 -34551.824078  16584.652894 -13155.107024     -1.816310
PJ03 -20347.995442  30285.432950 -16414.503586     -0.223922
PJ07 -25415.620942  33644.441228     16.682300     -0.034581
PR01   3599.431014  18713.728827  16951.130899     47.540199
PR02  15464.232311  20208.697367  -2093.942294    381.132550
PR03  16350.393899   8528.264839 -17603.323855     -0.749357
PR04   7272.970737  -8568.101052 -22878.957078    316.007299
PR05  -5305.488245 -19771.133344 -15193.859234     33.004248
PR07 -16187.706329  -7957.124101  18056.510446    -24.336378
PR08  -7827.274199   7905.982476  23009.014263     16.429888
PR09 -17650.863707  -6768.016618  17182.026532     83.107697
PR10 -25223.487259    143.346200   4087.156868     55.717257
PR11 -19790.441567   8479.970866 -13703.426836    -74.556360
PR12  -3692.168077  11071.484169 -22648.666826     48.871880
PR13  15714.489250   7262.607472 -18741.396900    -26.605107
PR14  25193.207967   -446.457546  -3882.064125     41.515689
PR15  20351.755934  -8073.753521  13106.663533    103.354481
PR16   3417.036853 -11319.125215  22596.470004      6.761731
PR17  12409.147262  -2630.818865  22139.370878    248.332002
PR18  14076.976470 -17858.292759  11511.938945      2.287613
PR19   8847.198409 -23338.205267  -5288.255259    -45.594101
PR20  -2997.732427 -14752.619485 -20578.710144   -386.079141
PR21 -12540.811429   3305.644277 -21965.008142    -63.290429
PR22 -13696.387832  19672.559872  -8895.300583    -31.069382
PR23  -5325.583056  22575.517304  10597.613506    244.390626
PR24   4446.212238  13161.437081  21364.256746   -183.218095
PR26  -1388.357224 -17101.266471 -18880.418693    -13.480710
EOF
